[
    {
        "Altitude(m)": 624792.8067626836,
        "Argument of Periapsis(deg)": 0.0,
        "Eccentricity": 0.0,
        "Inclination(deg)": 60.0,
        "Latitude(deg)": -59.14719274210224,
        "Longitude(deg)": -75.97357875429606,
        "Mean Anomaly(deg)": -98.18179999999998,
        "RAAN(deg)": 130.0,
        "Satellite Name": "Test1 588",
        "Satellite Number": 588,
        "Semi-Major Axis(m)": 6980739.136638005,
        "Time(s)": 0
    },
    {
        "Altitude(m)": 624842.1986253092,
        "Argument of Periapsis(deg)": 0.00010418945913296404,
        "Eccentricity": 0.0,
        "Inclination(deg)": 60.0,
        "Latitude(deg)": -59.28927609025049,
        "Longitude(deg)": -74.84407110730707,
        "Mean Anomaly(deg)": -97.56169385453813,
        "RAAN(deg)": 129.99957995086024,
        "Satellite Name": "Test1 588",
        "Satellite Number": 588,
        "Semi-Major Axis(m)": 6980739.136638005,
        "Time(s)": 10
    }
]